{"type": "FeatureCollection", "features": [ {"type": "Feature", "properties": {"norad_id": 35773, "name": "COSMOS 2251 DEB", "group": "cosmos-2251-debris", "lat": -72.89242806962471, "lon": -104.65735436269546, "alt_km": 722.1643076474893, "timestamp": "2025-12-21T11:31:43.256148+00:00", "meta": {"OBJECT_NAME": "COSMOS 2251 DEB", "OBJECT_ID": "1993-036ART", "EPOCH": "2025-12-20T07:59:54.023424", "MEAN_MOTION": 14.62106943, "ECCENTRICITY": 0.00452591, "INCLINATION": 74.0079, "RA_OF_ASC_NODE": 326.2549, "ARG_OF_PERICENTER": 124.0691, "MEAN_ANOMALY": 236.4785, "EPHEMERIS_TYPE": 0, "CLASSIFICATION_TYPE": "U", "NORAD_CAT_ID": 35773, "ELEMENT_SET_NO": 999, "REV_AT_EPOCH": 86950, "BSTAR": 0.00039637734, "MEAN_MOTION_DOT": 1.991e-05, "MEAN_MOTION_DDOT": 0}, "tle": {"line1": "1 35773U 93036ART 25354.33326416  .00001991  00000+0  39638-3 0  9994", "line2": "2 35773  74.0079 326.2549 0045259 124.0691 236.4785 14.62106943869502"}}, "geometry": {"type": "Point", "coordinates": [-104.65735436269546, -72.89242806962471]}}, {"type": "Feature", "properties": {"norad_id": 35777, "name": "COSMOS 2251 DEB", "group": "cosmos-2251-debris", "lat": -60.6786698772144, "lon": 160.00987376556324, "alt_km": 856.4785778364121, "timestamp": "2025-12-21T11:31:43.256159+00:00", "meta": {"OBJECT_NAME": "COSMOS 2251 DEB", "OBJECT_ID": "1993-036ARX", "EPOCH": "2025-12-21T03:15:52.332768", "MEAN_MOTION": 13.41306169, "ECCENTRICITY": 0.0451891, "INCLINATION": 73.7705, "RA_OF_ASC_NODE": 309.3239, "ARG_OF_PERICENTER": 202.9304, "MEAN_ANOMALY": 176.7174, "EPHEMERIS_TYPE": 0, "CLASSIFICATION_TYPE": "U", "NORAD_CAT_ID": 35777, "ELEMENT_SET_NO": 999, "REV_AT_EPOCH": 79797, "BSTAR": 0.00012978, "MEAN_MOTION_DOT": 1.09e-06, "MEAN_MOTION_DDOT": 0}, "tle": {"line1": "1 35777U 93036ARX 25355.13602237  .00000109  00000+0  12978-3 0  9993", "line2": "2 35777  73.7705 309.3239 0451891 202.9304 176.7174 13.41306169797973"}}, "geometry": {"type": "Point", "coordinates": [160.00987376556324, -60.6786698772144]}}, {"type": "Feature", "properties": {"norad_id": 35784, "name": "COSMOS 2251 DEB", "group": "cosmos-2251-debris", "lat": -73.63918391717718, "lon": -3.8075737221749075, "alt_km": 722.7279401495762, "timestamp": "2025-12-21T11:31:43.256170+00:00", "meta": {"OBJECT_NAME": "COSMOS 2251 DEB", "OBJECT_ID": "1993-036ASE", "EPOCH": "2025-12-17T23:28:57.859680", "MEAN_MOTION": 14.50055355, "ECCENTRICITY": 0.00415956, "INCLINATION": 74.0403, "RA_OF_ASC_NODE": 79.8718, "ARG_OF_PERICENTER": 209.9484, "MEAN_ANOMALY": 149.9297, "EPHEMERIS_TYPE": 0, "CLASSIFICATION_TYPE": "U", "NORAD_CAT_ID": 35784, "ELEMENT_SET_NO": 999, "REV_AT_EPOCH": 65782, "BSTAR": 0.00024795111, "MEAN_MOTION_DOT": 9.44e-06, "MEAN_MOTION_DDOT": 0}, "tle": {"line1": "1 35784U 93036ASE 25351.97844745  .00000944  00000+0  24795-3 0  9998", "line2": "2 35784  74.0403  79.8718 0041595 209.9484 149.9297 14.50055355657829"}}, "geometry": {"type": "Point", "coordinates": [-3.8075737221749075, -73.63918391717718]}}, {"type": "Feature", "properties": {"norad_id": 35786, "name": "COSMOS 2251 DEB", "group": "cosmos-2251-debris", "lat": -17.89842345061074, "lon": 21.58883033120698, "alt_km": 700.9793637684925, "timestamp": "2025-12-21T11:31:43.256180+00:00", "meta": {"OBJECT_NAME": "COSMOS 2251 DEB", "OBJECT_ID": "1993-036ASG", "EPOCH": "2025-12-19T18:40:39.541152", "MEAN_MOTION": 14.66292121, "ECCENTRICITY": 0.00334702, "INCLINATION": 74.0141, "RA_OF_ASC_NODE": 30.1848, "ARG_OF_PERICENTER": 158.321, "MEAN_ANOMALY": 201.9385, "EPHEMERIS_TYPE": 0, "CLASSIFICATION_TYPE": "U", "NORAD_CAT_ID": 35786, "ELEMENT_SET_NO": 999, "REV_AT_EPOCH": 73511, "BSTAR": 0.00056402109, "MEAN_MOTION_DOT": 3.106e-05, "MEAN_MOTION_DDOT": 0}, "tle": {"line1": "1 35786U 93036ASG 25353.77823543  .00003106  00000+0  56402-3 0  9996", "line2": "2 35786  74.0141  30.1848 0033470 158.3210 201.9385 14.66292121735118"}}, "geometry": {"type": "Point", "coordinates": [21.58883033120698, -17.89842345061074]}}, {"type": "Feature", "properties": {"norad_id": 35789, "name": "COSMOS 2251 DEB", "group": "cosmos-2251-debris", "lat": 16.531377936848678, "lon": 83.45353838466643, "alt_km": 803.3818581539672, "timestamp": "2025-12-21T11:31:43.256191+00:00", "meta": {"OBJECT_NAME": "COSMOS 2251 DEB", "OBJECT_ID": "1993-036ASK", "EPOCH": "2025-12-20T11:22:01.638048", "MEAN_MOTION": 14.35991601, "ECCENTRICITY": 0.00476765, "INCLINATION": 74.0388, "RA_OF_ASC_NODE": 270.1736, "ARG_OF_PERICENTER": 7.6909, "MEAN_ANOMALY": 352.4963, "EPHEMERIS_TYPE": 0, "CLASSIFICATION_TYPE": "U", "NORAD_CAT_ID": 35789, "ELEMENT_SET_NO": 999, "REV_AT_EPOCH": 61338, "BSTAR": 9.629757e-05, "MEAN_MOTION_DOT": 2.57e-06, "MEAN_MOTION_DDOT": 0}, "tle": {"line1": "1 35789U 93036ASK 25354.47363007  .00000257  00000+0  96298-4 0  9993", "line2": "2 35789  74.0388 270.1736 0047676   7.6909 352.4963 14.35991601613383"}}, "geometry": {"type": "Point", "coordinates": [83.45353838466643, 16.531377936848678]}}, {"type": "Feature", "properties": {"norad_id": 35793, "name": "COSMOS 2251 DEB", "group": "cosmos-2251-debris", "lat": 55.94741814820617, "lon": -162.04513005827994, "alt_km": 625.9914228020916, "timestamp": "2025-12-21T11:31:43.256201+00:00", "meta": {"OBJECT_NAME": "COSMOS 2251 DEB", "OBJECT_ID": "1993-036ASP", "EPOCH": "2025-12-20T10:41:54.896928", "MEAN_MOTION": 14.78845643, "ECCENTRICITY": 0.00021644, "INCLINATION": 74.0407, "RA_OF_ASC_NODE": 45.0385, "ARG_OF_PERICENTER": 87.6843, "MEAN_ANOMALY": 287.023, "EPHEMERIS_TYPE": 0, "CLASSIFICATION_TYPE": "U", "NORAD_CAT_ID": 35793, "ELEMENT_SET_NO": 999, "REV_AT_EPOCH": 65911, "BSTAR": 0.0010069204, "MEAN_MOTION_DOT": 7.388e-05, "MEAN_MOTION_DDOT": 0}, "tle": {"line1": "1 35793U 93036ASP 25354.44577427  .00007388  00000+0  10069-2 0  9990", "line2": "2 35793  74.0407  45.0385 0002164  87.6843 287.0230 14.78845643659119"}}, "geometry": {"type": "Point", "coordinates": [-162.04513005827994, 55.94741814820617]}}, {"type": "Feature", "properties": {"norad_id": 35824, "name": "COSMOS 2251 DEB", "group": "cosmos-2251-debris", "lat": -3.086250749416509, "lon": -145.33838647684945, "alt_km": 856.1983883658895, "timestamp": "2025-12-21T11:31:43.256212+00:00", "meta": {"OBJECT_NAME": "COSMOS 2251 DEB", "OBJECT_ID": "1993-036ASW", "EPOCH": "2025-12-20T19:06:39.912192", "MEAN_MOTION": 13.88444616, "ECCENTRICITY": 0.02478838, "INCLINATION": 73.8455, "RA_OF_ASC_NODE": 34.9416, "ARG_OF_PERICENTER": 119.5939, "MEAN_ANOMALY": 243.0136, "EPHEMERIS_TYPE": 0, "CLASSIFICATION_TYPE": "U", "NORAD_CAT_ID": 35824, "ELEMENT_SET_NO": 999, "REV_AT_EPOCH": 84339, "BSTAR": 0.00068036061, "MEAN_MOTION_DOT": 1.02e-05, "MEAN_MOTION_DDOT": 0}, "tle": {"line1": "1 35824U 93036ASW 25354.79629528  .00001020  00000+0  68036-3 0  9998", "line2": "2 35824  73.8455  34.9416 0247883 119.5939 243.0136 13.88444616843393"}}, "geometry": {"type": "Point", "coordinates": [-145.33838647684945, -3.086250749416509]}}, {"type": "Feature", "properties": {"norad_id": 35825, "name": "COSMOS 2251 DEB", "group": "cosmos-2251-debris", "lat": 8.073452567997428, "lon": 130.59021936104452, "alt_km": 1211.1564767687014, "timestamp": "2025-12-21T11:31:43.256223+00:00", "meta": {"OBJECT_NAME": "COSMOS 2251 DEB", "OBJECT_ID": "1993-036ASX", "EPOCH": "2025-12-14T02:36:29.406816", "MEAN_MOTION": 13.70963524, "ECCENTRICITY": 0.03526119, "INCLINATION": 74.113, "RA_OF_ASC_NODE": 140.3902, "ARG_OF_PERICENTER": 235.9093, "MEAN_ANOMALY": 120.8102, "EPHEMERIS_TYPE": 0, "CLASSIFICATION_TYPE": "U", "NORAD_CAT_ID": 35825, "ELEMENT_SET_NO": 999, "REV_AT_EPOCH": 82527, "BSTAR": 0.0023333684, "MEAN_MOTION_DOT": 3.214e-05, "MEAN_MOTION_DDOT": 0}, "tle": {"line1": "1 35825U 93036ASX 25348.10867369  .00003214  00000+0  23334-2 0  9992", "line2": "2 35825  74.1130 140.3902 0352611 235.9093 120.8102 13.70963524825277"}}, "geometry": {"type": "Point", "coordinates": [130.59021936104452, 8.073452567997428]}}, {"type": "Feature", "properties": {"norad_id": 35829, "name": "COSMOS 2251 DEB", "group": "cosmos-2251-debris", "lat": -34.5637519236474, "lon": 70.29781386168702, "alt_km": 650.1904563846438, "timestamp": "2025-12-21T11:31:43.256233+00:00", "meta": {"OBJECT_NAME": "COSMOS 2251 DEB", "OBJECT_ID": "1993-036ATB", "EPOCH": "2025-12-17T00:21:46.598688", "MEAN_MOTION": 14.76400839, "ECCENTRICITY": 0.0005573, "INCLINATION": 74.0249, "RA_OF_ASC_NODE": 90.4281, "ARG_OF_PERICENTER": 146.0686, "MEAN_ANOMALY": 214.0846, "EPHEMERIS_TYPE": 0, "CLASSIFICATION_TYPE": "U", "NORAD_CAT_ID": 35829, "ELEMENT_SET_NO": 999, "REV_AT_EPOCH": 87838, "BSTAR": 0.001494418, "MEAN_MOTION_DOT": 0.00010373, "MEAN_MOTION_DDOT": 0}, "tle": {"line1": "1 35829U 93036ATB 25351.01512267  .00010373  00000+0  14944-2 0  9995", "line2": "2 35829  74.0249  90.4281 0005573 146.0686 214.0846 14.76400839878381"}}, "geometry": {"type": "Point", "coordinates": [70.29781386168702, -34.5637519236474]}}, {"type": "Feature", "properties": {"norad_id": 35830, "name": "COSMOS 2251 DEB", "group": "cosmos-2251-debris", "lat": 55.708610073347614, "lon": -84.34379528506305, "alt_km": 887.0174548276855, "timestamp": "2025-12-21T11:31:43.256244+00:00", "meta": {"OBJECT_NAME": "COSMOS 2251 DEB", "OBJECT_ID": "1993-036ATC", "EPOCH": "2025-12-17T01:01:27.071616", "MEAN_MOTION": 14.24015017, "ECCENTRICITY": 0.01218819, "INCLINATION": 73.8614, "RA_OF_ASC_NODE": 258.6041, "ARG_OF_PERICENTER": 226.0627, "MEAN_ANOMALY": 133.0413, "EPHEMERIS_TYPE": 0, "CLASSIFICATION_TYPE": "U", "NORAD_CAT_ID": 35830, "ELEMENT_SET_NO": 999, "REV_AT_EPOCH": 61325, "BSTAR": 0.00082142349, "MEAN_MOTION_DOT": 2.01e-05, "MEAN_MOTION_DDOT": 0}, "tle": {"line1": "1 35830U 93036ATC 25351.04267444  .00002010  00000+0  82142-3 0  9999", "line2": "2 35830  73.8614 258.6041 0121881 226.0627 133.0413 14.24015017613259"}}, "geometry": {"type": "Point", "coordinates": [-84.34379528506305, 55.708610073347614]}}]}